[{"OBJECT_NAME":"STARLINK-31341","OBJECT_ID":"2024-044D","EPOCH":"2026-03-09T02:36:23.167872","MEAN_MOTION":15.27576268,"ECCENTRICITY":7.047e-5,"INCLINATION":42.9999,"RA_OF_ASC_NODE":114.0181,"ARG_OF_PERICENTER":228.2459,"MEAN_ANOMALY":131.8332,"EPHEMERIS_TYPE":0,"CLASSIFICATION_TYPE":"U","NORAD_CAT_ID":59155,"ELEMENT_SET_NO":999,"REV_AT_EPOCH":11343,"BSTAR":-3.001456e-5,"MEAN_MOTION_DOT":-1.087e-5,"MEAN_MOTION_DDOT":0},{"OBJECT_NAME":"OBJECT A","OBJECT_ID":"2025-013A","EPOCH":"2026-03-09T23:29:31.895232","MEAN_MOTION":15.29260221,"ECCENTRICITY":0.0010321,"INCLINATION":97.6364,"RA_OF_ASC_NODE":244.5149,"ARG_OF_PERICENTER":282.3775,"MEAN_ANOMALY":77.6309,"EPHEMERIS_TYPE":0,"CLASSIFICATION_TYPE":"U","NORAD_CAT_ID":62729,"ELEMENT_SET_NO":999,"REV_AT_EPOCH":6276,"BSTAR":0.0013206527,"MEAN_MOTION_DOT":0.00037616,"MEAN_MOTION_DDOT":0}]
